start=new Date('2022-05-29T00:00:00.000Z').valueOf();
sats=[{"SITE":"AFETR","PERIAPSIS":"546.168","OBJECT_TYPE":"PAYLOAD","APOAPSIS":"548.222","EPHEMERIS_TYPE":"0","TLE_LINE2":"2 46149  53.0560  15.1770 0001483  62.8553 297.2587 15.06406026 99504","COUNTRY_CODE":"US","CENTER_NAME":"EARTH","NORAD_CAT_ID":"46149","CLASSIFICATION_TYPE":"U","ELEMENT_SET_NO":"999","EPOCH":"2022-05-28T21:53:56.063616","MEAN_ELEMENT_THEORY":"SGP4","BSTAR":"0.00010486000000","TLE_LINE1":"1 46149U 20057AJ  22148.91245444  .00001281  00000-0  10486-3 0  9992","RA_OF_ASC_NODE":"15.1770","MEAN_MOTION_DDOT":"0.0000000000000","ECCENTRICITY":"0.00014830","OBJECT_NAME":"STARLINK-1620","MEAN_MOTION":"15.06406026","LAUNCH_DATE":"2020-08-18","PERIOD":"95.592","REV_AT_EPOCH":"9950","MEAN_MOTION_DOT":"0.00001281","DECAY_DATE":null,"RCS_SIZE":"LARGE","REF_FRAME":"TEME","ARG_OF_PERICENTER":"62.8553","FILE":"3469840","GP_ID":"204801784","SEMIMAJOR_AXIS":"6925.330","OBJECT_ID":"2020-057AJ","TIME_SYSTEM":"UTC","INCLINATION":"53.0560","MEAN_ANOMALY":"297.2587"},{"RA_OF_ASC_NODE":"35.1885","TLE_LINE1":"1 46150U 20057AK  22148.90692796  .00001622  00000-0  12775-3 0  9991","ECCENTRICITY":"0.00016600","MEAN_MOTION_DDOT":"0.0000000000000","OBJECT_NAME":"STARLINK-1629","MEAN_MOTION":"15.06408641","LAUNCH_DATE":"2020-08-18","PERIOD":"95.592","PERIAPSIS":"546.037","OBJECT_TYPE":"PAYLOAD","SITE":"AFETR","COUNTRY_CODE":"US","TLE_LINE2":"2 46150  53.0565  35.1885 0001660  52.8555 307.2585 15.06408641 97950","EPHEMERIS_TYPE":"0","APOAPSIS":"548.337","CENTER_NAME":"EARTH","CLASSIFICATION_TYPE":"U","NORAD_CAT_ID":"46150","MEAN_ELEMENT_THEORY":"SGP4","BSTAR":"0.00012775000000","EPOCH":"2022-05-28T21:45:58.575744","ELEMENT_SET_NO":"999","SEMIMAJOR_AXIS":"6925.322","OBJECT_ID":"2020-057AK","INCLINATION":"53.0565","TIME_SYSTEM":"UTC","MEAN_ANOMALY":"307.2585","DECAY_DATE":null,"MEAN_MOTION_DOT":"0.00001622","REV_AT_EPOCH":"9795","REF_FRAME":"TEME","RCS_SIZE":"LARGE","FILE":"3469840","ARG_OF_PERICENTER":"52.8555","GP_ID":"204801534"},{"GP_ID":"204802786","ARG_OF_PERICENTER":"78.3986","FILE":"3469840","RCS_SIZE":"LARGE","REF_FRAME":"TEME","MEAN_MOTION_DOT":"0.00006235","REV_AT_EPOCH":"9822","DECAY_DATE":null,"MEAN_ANOMALY":"281.7166","OBJECT_ID":"2020-057AL","INCLINATION":"53.0546","TIME_SYSTEM":"UTC","SEMIMAJOR_AXIS":"6925.300","ELEMENT_SET_NO":"999","EPOCH":"2022-05-28T21:11:28.669344","BSTAR":"0.00043694000000","MEAN_ELEMENT_THEORY":"SGP4","CENTER_NAME":"EARTH","NORAD_CAT_ID":"46151","CLASSIFICATION_TYPE":"U","EPHEMERIS_TYPE":"0","APOAPSIS":"548.168","COUNTRY_CODE":"US","TLE_LINE2":"2 46151  53.0546  15.2954 0001448  78.3986 281.7166 15.06415711 98229","SITE":"AFETR","PERIAPSIS":"546.163","OBJECT_TYPE":"PAYLOAD","PERIOD":"95.591","LAUNCH_DATE":"2020-08-18","MEAN_MOTION":"15.06415711","RA_OF_ASC_NODE":"15.2954","TLE_LINE1":"1 46151U 20057AL  22148.88297071  .00006235  00000-0  43694-3 0  9995","OBJECT_NAME":"STARLINK-1631","MEAN_MOTION_DDOT":"0.0000000000000","ECCENTRICITY":"0.00014480"},{"RCS_SIZE":"LARGE","REF_FRAME":"TEME","DECAY_DATE":null,"MEAN_MOTION_DOT":"0.00002440","REV_AT_EPOCH":"9794","GP_ID":"204803031","FILE":"3469840","ARG_OF_PERICENTER":"67.6188","INCLINATION":"53.0569","TIME_SYSTEM":"UTC","OBJECT_ID":"2020-057AM","SEMIMAJOR_AXIS":"6925.319","MEAN_ANOMALY":"292.4960","COUNTRY_CODE":"US","TLE_LINE2":"2 46152  53.0569  35.3811 0001498  67.6188 292.4960 15.06409658 97942","EPHEMERIS_TYPE":"0","APOAPSIS":"548.221","OBJECT_TYPE":"PAYLOAD","PERIAPSIS":"546.147","SITE":"AFETR","MEAN_ELEMENT_THEORY":"SGP4","BSTAR":"0.00018260000000","ELEMENT_SET_NO":"999","EPOCH":"2022-05-28T20:47:36.087360","CLASSIFICATION_TYPE":"U","NORAD_CAT_ID":"46152","CENTER_NAME":"EARTH","MEAN_MOTION":"15.06409658","ECCENTRICITY":"0.00014980","MEAN_MOTION_DDOT":"0.0000000000000","OBJECT_NAME":"STARLINK-1634","RA_OF_ASC_NODE":"35.3811","TLE_LINE1":"1 46152U 20057AM  22148.86638990  .00002440  00000-0  18260-3 0  9998","PERIOD":"95.592","LAUNCH_DATE":"2020-08-18"},{"MEAN_ANOMALY":"295.3057","INCLINATION":"53.0542","TIME_SYSTEM":"UTC","OBJECT_ID":"2020-057AN","SEMIMAJOR_AXIS":"6925.305","GP_ID":"204801284","ARG_OF_PERICENTER":"64.8104","FILE":"3469840","REF_FRAME":"TEME","RCS_SIZE":"LARGE","REV_AT_EPOCH":"9822","MEAN_MOTION_DOT":"0.00000439","DECAY_DATE":null,"PERIOD":"95.591","LAUNCH_DATE":"2020-08-18","MEAN_MOTION":"15.06414156","MEAN_MOTION_DDOT":"0.0000000000000","ECCENTRICITY":"0.00016610","OBJECT_NAME":"STARLINK-1636","RA_OF_ASC_NODE":"15.2293","TLE_LINE1":"1 46153U 20057AN  22148.90138881  .00000439  00000-0  48374-4 0  9994","EPOCH":"2022-05-28T21:37:59.993184","ELEMENT_SET_NO":"999","BSTAR":"0.00004837400000","MEAN_ELEMENT_THEORY":"SGP4","NORAD_CAT_ID":"46153","CLASSIFICATION_TYPE":"U","CENTER_NAME":"EARTH","APOAPSIS":"548.320","EPHEMERIS_TYPE":"0","TLE_LINE2":"2 46153  53.0542  15.2293 0001661  64.8104 295.3057 15.06414156 98224","COUNTRY_CODE":"US","SITE":"AFETR","PERIAPSIS":"546.020","OBJECT_TYPE":"PAYLOAD"},{"PERIOD":"95.593","LAUNCH_DATE":"2020-08-18","MEAN_MOTION":"15.06393169","TLE_LINE1":"1 46154U 20057AP  22148.91154334  .00003555  00000-0  25750-3 0  9991","RA_OF_ASC_NODE":"25.1850","OBJECT_NAME":"STARLINK-1642","MEAN_MOTION_DDOT":"0.0000000000000","ECCENTRICITY":"0.00017560","MEAN_ELEMENT_THEORY":"SGP4","BSTAR":"0.00025750000000","EPOCH":"2022-05-28T21:52:37.344576","ELEMENT_SET_NO":"999","CENTER_NAME":"EARTH","CLASSIFICATION_TYPE":"U","NORAD_CAT_ID":"46154","TLE_LINE2":"2 46154  53.0552  25.1850 0001756  61.2403 298.8763 15.06393169 98090","COUNTRY_CODE":"US","APOAPSIS":"548.451","EPHEMERIS_TYPE":"0","OBJECT_TYPE":"PAYLOAD","PERIAPSIS":"546.018","SITE":"AFETR","MEAN_ANOMALY":"298.8763","OBJECT_ID":"2020-057AP","INCLINATION":"53.0552","TIME_SYSTEM":"UTC","SEMIMAJOR_AXIS":"6925.369","GP_ID":"204802035","FILE":"3469840","ARG_OF_PERICENTER":"61.2403","RCS_SIZE":"LARGE","REF_FRAME":"TEME","DECAY_DATE":null,"MEAN_MOTION_DOT":"0.00003555","REV_AT_EPOCH":"9809"},{"GP_ID":"204802286","ARG_OF_PERICENTER":"56.8288","FILE":"3469840","REF_FRAME":"TEME","RCS_SIZE":"LARGE","REV_AT_EPOCH":"9974","MEAN_MOTION_DOT":"0.00002035","DECAY_DATE":null,"MEAN_ANOMALY":"303.2844","INCLINATION":"53.0563","TIME_SYSTEM":"UTC","OBJECT_ID":"2020-057AQ","SEMIMAJOR_AXIS":"6925.344","EPOCH":"2022-05-28T20:52:53.990112","ELEMENT_SET_NO":"999","MEAN_ELEMENT_THEORY":"SGP4","BSTAR":"0.00015549000000","NORAD_CAT_ID":"46155","CLASSIFICATION_TYPE":"U","CENTER_NAME":"EARTH","APOAPSIS":"548.244","EPHEMERIS_TYPE":"0","TLE_LINE2":"2 46155  53.0563 355.3538 0001495  56.8288 303.2844 15.06401478 99742","COUNTRY_CODE":"US","SITE":"AFETR","PERIAPSIS":"546.174","OBJECT_TYPE":"PAYLOAD","PERIOD":"95.592","LAUNCH_DATE":"2020-08-18","MEAN_MOTION":"15.06401478","OBJECT_NAME":"STARLINK-1667","MEAN_MOTION_DDOT":"0.0000000000000","ECCENTRICITY":"0.00014950","TLE_LINE1":"1 46155U 20057AQ  22148.87006933  .00002035  00000-0  15549-3 0  9995","RA_OF_ASC_NODE":"355.3538"},{"MEAN_ANOMALY":"298.9455","TIME_SYSTEM":"UTC","INCLINATION":"53.0579","OBJECT_ID":"2020-057AR","SEMIMAJOR_AXIS":"6925.342","GP_ID":"204802531","FILE":"3469840","ARG_OF_PERICENTER":"61.1718","RCS_SIZE":"LARGE","REF_FRAME":"TEME","DECAY_DATE":null,"MEAN_MOTION_DOT":"0.00001820","REV_AT_EPOCH":"9948","PERIOD":"95.592","LAUNCH_DATE":"2020-08-18","MEAN_MOTION":"15.06401978","ECCENTRICITY":"0.00018310","MEAN_MOTION_DDOT":"0.0000000000000","OBJECT_NAME":"STARLINK-1545","TLE_LINE1":"1 46156U 20057AR  22148.92720208  .00001820  00000-0  14108-3 0  9991","RA_OF_ASC_NODE":"15.0927","MEAN_ELEMENT_THEORY":"SGP4","BSTAR":"0.00014108000000","ELEMENT_SET_NO":"999","EPOCH":"2022-05-28T22:15:10.259712","CLASSIFICATION_TYPE":"U","NORAD_CAT_ID":"46156","CENTER_NAME":"EARTH","COUNTRY_CODE":"US","TLE_LINE2":"2 46156  53.0579  15.0927 0001831  61.1718 298.9455 15.06401978 99487","EPHEMERIS_TYPE":"0","APOAPSIS":"548.476","PERIAPSIS":"545.939","OBJECT_TYPE":"PAYLOAD","SITE":"AFETR"},{"MEAN_MOTION":"15.06408719","MEAN_MOTION_DDOT":"0.0000000000000","ECCENTRICITY":"0.00018730","OBJECT_NAME":"STARLINK-1587","TLE_LINE1":"1 46157U 20057AS  22148.84794878  .00003279  00000-0  23889-3 0  9993","RA_OF_ASC_NODE":"355.4618","PERIOD":"95.592","LAUNCH_DATE":"2020-08-18","APOAPSIS":"548.484","EPHEMERIS_TYPE":"0","TLE_LINE2":"2 46157  53.0570 355.4618 0001873  58.0040 302.1131 15.06408719 98507","COUNTRY_CODE":"US","SITE":"AFETR","PERIAPSIS":"545.890","OBJECT_TYPE":"PAYLOAD","ELEMENT_SET_NO":"999","EPOCH":"2022-05-28T20:21:02.774592","BSTAR":"0.00023889000000","MEAN_ELEMENT_THEORY":"SGP4","NORAD_CAT_ID":"46157","CLASSIFICATION_TYPE":"U","CENTER_NAME":"EARTH","TIME_SYSTEM":"UTC","INCLINATION":"53.0570","OBJECT_ID":"2020-057AS","SEMIMAJOR_AXIS":"6925.322","MEAN_ANOMALY":"302.1131","REF_FRAME":"TEME","RCS_SIZE":"LARGE","MEAN_MOTION_DOT":"0.00003279","REV_AT_EPOCH":"9850","DECAY_DATE":null,"GP_ID":"204801785","ARG_OF_PERICENTER":"58.0040","FILE":"3469840"},{"LAUNCH_DATE":"2020-08-18","PERIOD":"95.592","TLE_LINE1":"1 46158U 20057AT  22148.84427123 -.00000023  00000-0  17360-4 0  9993","RA_OF_ASC_NODE":"355.4840","MEAN_MOTION_DDOT":"0.0000000000000","ECCENTRICITY":"0.00014260","OBJECT_NAME":"STARLINK-1589","MEAN_MOTION":"15.06404156","CENTER_NAME":"EARTH","CLASSIFICATION_TYPE":"U","NORAD_CAT_ID":"46158","BSTAR":"0.00001736000000","MEAN_ELEMENT_THEORY":"SGP4","ELEMENT_SET_NO":"999","EPOCH":"2022-05-28T20:15:45.034272","OBJECT_TYPE":"PAYLOAD","PERIAPSIS":"546.213","SITE":"AFETR","TLE_LINE2":"2 46158  53.0557 355.4840 0001426  76.0659 284.0489 15.06404156 99764","COUNTRY_CODE":"US","APOAPSIS":"548.188","EPHEMERIS_TYPE":"0","MEAN_ANOMALY":"284.0489","SEMIMAJOR_AXIS":"6925.336","OBJECT_ID":"2020-057AT","TIME_SYSTEM":"UTC","INCLINATION":"53.0557","FILE":"3469840","ARG_OF_PERICENTER":"76.0659","GP_ID":"204801535","DECAY_DATE":null,"MEAN_MOTION_DOT":"-0.00000023","REV_AT_EPOCH":"9976","REF_FRAME":"TEME","RCS_SIZE":"LARGE"}];
